ONEWEB-0080             
1 45426U 20020C   24326.43599256 -.00000481  00000+0 -13926-2 0  9992
2 45426  87.8882 135.1818 0001439  76.0333 284.0955 13.11419223227630
ONEWEB-0090             
1 45427U 20020D   24326.98705823  .00000302  00000+0  81703-3 0  9991
2 45427  87.8884 135.0622 0001522  92.2393 267.8910 13.11419945227680
ONEWEB-0061             
1 45428U 20020E   24327.01912003  .00000203  00000+0  53652-3 0  9999
2 45428  87.8880 135.0472 0001468  87.4066 272.7230 13.11415466227631
ONEWEB-0081             
1 45429U 20020F   24326.46652800  .00000552  00000+0  15203-2 0  9990
2 45429  87.8882 135.1762 0001744  90.7055 269.4273 13.11417153227678
ONEWEB-0069             
1 45430U 20020G   24326.45634673  .00000497  00000+0  13659-2 0  9990
2 45430  87.8884 135.1675 0001398  89.7185 270.4103 13.11417718227617
ONEWEB-0031             
1 45431U 20020H   24327.03789636 -.00000429  00000+0 -12476-2 0  9999
2 45431  87.8889 135.0694 0001418  93.9772 266.1518 13.11416033227661
ONEWEB-0027             
1 45432U 20020J   24326.36832804  .00000032  00000+0  48211-4 0  9997
2 45432  87.9074 119.9629 0001323 104.0589 256.0690 13.17649846230921
ONEWEB-0064             
1 45433U 20020K   24327.03620524 -.00000439  00000+0 -12752-2 0  9999
2 45433  87.8878 135.0707 0001358  96.5236 263.6046 13.11415806227703
